{
  "norad_id": 68996,
  "name": "CAS500-2 RIDESHARE OBJECT S",
  "history": [
    {
      "epoch": "2026-05-09T20:00:04.000032Z",
      "apogee_km": 596.2595302226136,
      "perigee_km": 592.4400019721443,
      "latitude_deg": -44.12760714816748,
      "longitude_deg": -132.13407703676546,
      "height_km": 609.8233374422769,
      "semi_major_axis_km": 6972.486766097379,
      "eccentricity": 0.0002739,
      "inclination_deg": 97.7387,
      "raan_deg": 27.9947,
      "arg_perigee_deg": 280.8192,
      "mean_anomaly_deg": 34.7936,
      "mean_motion_rev_day": 14.91149592
    }
  ]
}