CAS500-2 RIDESHARE OBJE*
1 68996U 26100S   26129.83337963 -.00059206  00000+0 -60148-2 0  9993
2 68996  97.7387  27.9947 0002739 280.8192  34.7936 14.91149592  2177
